#dP2020  5  3  0  0  0.00000000      96 __u+U ITR00 FIT  IAC
## 2104      0.00000000   900.00000000 58972 0.0000000000000
+  119   C01C02C03C04C05C06C07C08C09C10C11C12C13C14C16C19C20
+        C21C22C23C24C25C26C27C28C29C30C32C33C34C35C36C37C45
+        C46C60E01E02E03E04E05E07E08E09E11E12E13E14E15E18E19
+        E21E24E25E26E27E30E31E33E36G01G02G03G04G05G06G07G08
+        G09G10G11G12G13G14G15G16G17G18G19G20G21G22G23G24G25
+        G26G27G28G29G30G31G32J01J02J03J07R01R02R03R04R05R07
+        R08R09R11R12R13R14R15R16R17R18R19R20R21R22R23R24R26
++        13 12 13  0 13  8  8  8  8  8  7  7  8  8  8  8  8
++         8  8  7  8  7  8  7  7  8  8  8  8  8  8  8  8  0
++         0  0  4  4  4  5  4  5  4  5  4  4  4  4  4  5  4
++         5  5  4  4  5  5  5  5  4  3  3  3  3  3  3  3  4
++         3  3  4  3  3  4  4  4  3  3  4  4  4  3  4  3  3
++         3  4  3  3  3  3  3  8  8  8 14  6  5  5  6  5  5
++         6  5  5  5  6  5  6  6  5  5  6  6  5  5  5  5  8
%c M  cc GPS ccc cccc cccc cccc cccc ccccc ccccc ccccc ccccc
%c cc cc ccc ccc cccc cccc cccc cccc ccccc ccccc ccccc ccccc
%f  0.0000000  0.000000000  0.00000000000  0.000000000000000
%f  0.0000000  0.000000000  0.00000000000  0.000000000000000
%i    0    0    0    0      0      0      0      0         0
%i    0    0    0    0      0      0      0      0         0
/* INFORMATION & ANALYSIS CENTER (IAC)            RAPID DATA
/* S/V CLOCKS ARE ALIGNED TO GNSS TIME                      
/* G:C1WC2W R:C1PC2P E:C1XC5X C:C2IC6I J:C1CC2S             
/* PCV:IGS14_2101 OL/AL:FES2004  NONE     YN ORB:CoN CLK:CoN
*  2020 05 03 23 30  0.00000000
PC01 -34387.260440  24416.887579    726.142826   -547.395407
PC02   4468.107223  41909.210154   -755.260051    374.364912
PC03 -14723.644803  39507.738310  -1016.268071    587.397608
PC04      0.000000      0.000000      0.000000 999999.999999
PC05  21944.122915  35996.191156   -476.229197   -222.018670
PC06 -24518.429757  29552.785637  17308.999878    727.177473
PC07 -11760.272017  35923.142399  19366.277751     -4.708320
PC08 -12045.477111  17976.231523 -36106.925596   -233.596183
PC09  -9695.366871  29080.175837  29058.744631    515.926761
PC10   -770.752940  41867.979402   6781.212652   -920.031040
PC11  -9057.973671 -13113.336453  22968.244285   -342.442117
PC12  11913.212637 -16537.433133  19082.698254    364.230320
PC13   3342.261290  25646.563424 -33152.397402    416.379130
PC14  -4886.338069 -23379.878596 -14346.790563    366.100316
PC16 -21752.787929  30057.867812  19920.577486   -656.730722
PC19  10783.264134  15948.775097  20241.342324    401.537012
PC20  -1150.653305  26987.442035   7101.140622   -887.811626
PC21  12903.459222 -22257.587018  10803.533474   -358.275862
PC22  16711.410418  -4535.030546  21888.771400   -816.498110
PC23 -21930.887496  -4739.323700  16592.115343   -887.977644
PC24  -6666.159107 -22013.855721 -15823.236043   -834.528529
PC25 -21043.888951 -18317.705597    938.285404   -604.699761
PC26   9801.273255 -12877.856222 -22740.226779    667.346068
PC27 -20470.297130  14492.804408 -12226.755944    323.829456
PC28 -27148.024685   3880.883495   5176.567737    314.893134
PC29  18243.865077   8269.952693 -19439.829002    223.584140
PC30  -1562.233188  16706.894552 -22296.458972    311.550955
PC32 -12700.217654  22418.002392 -10713.339808   -901.505505
PC33 -10840.605118 -15929.951410 -20164.462745   -848.197623
PC34   1140.307769 -16658.642082  22356.639470   -687.629849
PC35  27012.356428  -4680.762014  -5322.273483   -861.739894
PC36  20498.222374  18928.272213   -691.357118   -826.332286
PC37 -10692.592258  12101.993634  22774.748091   -842.529525
PC45      0.000000      0.000000      0.000000 999999.999999
PC46      0.000000      0.000000      0.000000 999999.999999
PC60      0.000000      0.000000      0.000000 999999.999999
PE01   2182.130007 -24452.007017 -16542.380537   -849.073239
PE02  -2115.749969  24492.479008  16473.368269    130.839437
PE03 -13292.150448  25377.127472   7488.333793   -294.777845
PE04  -3485.156352 -20109.860607 -21427.157268   -518.220890
PE05 -22469.610431  15808.505497 -11014.708091   -383.278815
PE07  18457.278170   2937.643451  22963.591567   -376.884050
PE08   3701.923434  19889.557643  21620.713197   6183.371904
PE09 -18426.365000  -2602.791616 -23012.075604   6072.743727
PE11 -28118.283225  -7437.721285   5425.674869   2625.389876
PE12 -13307.983174 -15869.703683  21140.777845   5823.074013
PE13  28084.896000   7450.375096  -5676.395501    400.561684
PE14 -21966.077282   2329.364708  12001.948038  -1000.837009
PE15  13629.692906  15700.560356 -21065.370392    868.296165
PE18  21740.917392   7396.047805 -21515.772427  -1099.620912
PE19  14783.814096 -25033.156453  -5557.160339  -1549.692361
PE21  14591.650428  -7686.594124 -24585.245645   -596.962405
PE24 -18618.947572 -14128.802334  18158.726174   5474.432317
PE25 -14647.932192   7551.539681  24588.908335   -510.039821
PE26  25892.262415  -5340.466291  13322.248263   3230.335631
PE27  18680.500604  13821.752838 -18333.288315    227.605028
PE30  11471.834210  27260.414939  -1064.660323   3935.864306
PE31 -11785.497276 -27118.680094   1347.947202   -472.461241
PE33   8864.488768 -14736.351531  24100.626224   -467.702419
PE36 -26055.114805   5171.002194 -13042.625943    564.804169
PG01  20829.034672  15021.178574  -7654.836371   -372.882288
PG02   -811.453345 -16372.156400  21549.939089   -450.018923
PG03  12509.754861  17820.807751  15222.884074   -164.559810
PG04  15595.267502   6693.459623  20450.421024    -84.618660
PG05  -1529.822779 -26227.291666   2945.134873    -12.009797
PG06  10892.061341 -11052.978288  21615.228301   -264.938386
PG07  24799.696628   4389.930247  -8870.673507   -272.983242
PG08   5041.362784  14667.612306 -21513.580442    -32.777228
PG09  22046.250784  -3937.391017  14245.536450   -210.354557
PG10 -12173.772010  13017.500467 -19527.595477   -329.988717
PG11  13624.648071  13709.804625 -18586.964021   -287.392160
PG12 -10405.427153 -19685.237194  14365.302116    122.038529
PG13   4118.838657 -17615.777904 -19533.413271      7.138966
PG14 -16602.413234  18280.632374   9868.227276    -15.411466
PG15  -7746.847812 -14393.618551 -21205.855367   -233.664830
PG16   -282.794476  26278.440771   1127.545352   -153.964483
PG17  21917.220447 -14944.841478   1005.707558    258.997803
PG18 -24745.684932  -5573.935595  -7953.372435    178.011550
PG19  18698.808782 -16983.877471   7882.567177   -163.595541
PG20 -16001.631680    883.760510 -21274.538396    527.741952
PG21 -24687.526711  -2821.457613  -8186.820184     -6.033018
PG22  10200.510914  23526.346247   7400.730485   -783.367079
PG23  21771.092833  -2349.894084  15707.755281   -117.092507
PG24 -20218.173153 -14889.065825  -9398.166606    -12.552428
PG25 -14747.270046  -9590.040783  19738.656732      1.295492
PG26  -5865.125744  22575.337842  12458.007815    199.629137
PG27  -6119.214269  19030.976908 -17450.301056   -284.086276
PG28  12160.254701 -14208.217831 -18335.495241    720.357782
PG29 -20763.236695    126.004199  16531.589760    -95.985881
PG30  19517.439354  -4737.162373 -17445.405724   -212.330913
PG31 -10189.141754  11868.098494  21469.725552    -40.083086
PG32 -20788.461487  16371.210980   1102.846013    273.144923
PJ01 -23016.522435  32311.005814  -9673.165930   -311.083398
PJ02 -24048.928043  23368.068181  30352.124071     -2.689628
PJ03 -35583.391298  20594.481599  -4642.835282     -2.603451
PJ07 -25401.556930  33648.269406     30.904658      0.001194
PR01  -7979.465377  23905.281867   4008.916630     60.973190
PR02   4477.889496  14085.133472  20820.116089    424.938976
PR03  12866.623622  -3334.848232  21827.491949     14.393674
PR04  13726.364169 -18757.743017  10540.236647     47.848178
PR05   7030.142503 -23576.946396  -6757.544154     49.813584
PR07 -12978.482492   3886.603251 -21562.685530    -36.133201
PR08 -13759.265430  18763.726751 -10380.640891    -52.002383
PR09 -16768.896663 -18458.338283   5203.222244    130.662283
PR11  -7503.250004   8508.048233  22860.021251    -22.351122
PR12   5298.996909  19605.832969  15443.168341    127.817098
PR13  15782.773647  19995.387620  -1377.536459    -38.225932
PR14  16629.057522   8702.402775 -17273.664254     50.828783
PR15   8017.295283  -7554.612244 -22989.924810    106.421566
PR16  -6056.379535 -19848.105606 -14944.698215     -3.255520
PR17  24876.967259      2.187060  -5559.923494    322.041339
PR18  21710.905069  -7267.566740  11323.018912     34.147443
PR19   7567.905703 -10412.965913  22020.870388    -91.649045
PR20 -13578.295174  -7950.015861  20065.571470   -410.763924
PR21 -25088.701636    406.371024   4645.849845   -122.152290
PR22 -19971.662776   7989.239688 -13603.743284      0.468104
PR23     52.234418  10465.473364 -23271.052415    303.217085
PR24  14387.299782   8018.780700 -19460.045662     -3.105074
PR26  -9234.968739  -9019.923862  22014.627515   -397.136147
EOF
